{"type": "FeatureCollection", "features": [ {"type": "Feature", "properties": {"norad_id": 43010, "name": "FENGYUN 3D", "group": "weather", "lat": -44.74527253041579, "lon": 138.3003056576455, "alt_km": 832.8953426256076, "timestamp": "2025-12-26T19:22:38.536966+00:00", "meta": {"OBJECT_NAME": "FENGYUN 3D", "OBJECT_ID": "2017-072A", "EPOCH": "2025-12-26T14:56:10.501728", "MEAN_MOTION": 14.1968714, "ECCENTRICITY": 0.00016151, "INCLINATION": 98.9916, "RA_OF_ASC_NODE": 327.1414, "ARG_OF_PERICENTER": 144.6156, "MEAN_ANOMALY": 215.5127, "EPHEMERIS_TYPE": 0, "CLASSIFICATION_TYPE": "U", "NORAD_CAT_ID": 43010, "ELEMENT_SET_NO": 999, "REV_AT_EPOCH": 42050, "BSTAR": 2.6162642e-05, "MEAN_MOTION_DOT": 9e-08, "MEAN_MOTION_DDOT": 0}, "tle": {"line1": "1 43010U 17072A   25360.62234377  .00000009  00000+0  26163-4 0  9995", "line2": "2 43010  98.9916 327.1414 0001615 144.6156 215.5127 14.19687140420509"}}, "geometry": {"type": "Point", "coordinates": [138.3003056576455, -44.74527253041579]}}, {"type": "Feature", "properties": {"norad_id": 43013, "name": "NOAA 20 (JPSS-1)", "group": "weather", "lat": 9.151606365661397, "lon": -64.47229266953207, "alt_km": 827.7944631427636, "timestamp": "2025-12-26T19:22:38.536977+00:00", "meta": {"OBJECT_NAME": "NOAA 20 (JPSS-1)", "OBJECT_ID": "2017-073A", "EPOCH": "2025-12-26T14:15:32.122656", "MEAN_MOTION": 14.1952945, "ECCENTRICITY": 0.00020546, "INCLINATION": 98.7616, "RA_OF_ASC_NODE": 296.7404, "ARG_OF_PERICENTER": 67.5119, "MEAN_ANOMALY": 292.6275, "EPHEMERIS_TYPE": 0, "CLASSIFICATION_TYPE": "U", "NORAD_CAT_ID": 43013, "ELEMENT_SET_NO": 999, "REV_AT_EPOCH": 41998, "BSTAR": 7.2866784e-05, "MEAN_MOTION_DOT": 1.1e-06, "MEAN_MOTION_DDOT": 0}, "tle": {"line1": "1 43013U 17073A   25360.59412179  .00000110  00000+0  72867-4 0  9998", "line2": "2 43013  98.7616 296.7404 0002054  67.5119 292.6275 14.19529450419986"}}, "geometry": {"type": "Point", "coordinates": [-64.47229266953207, 9.151606365661397]}}, {"type": "Feature", "properties": {"norad_id": 43226, "name": "GOES 17", "group": "weather", "lat": -0.24659577339625754, "lon": -63.287877760332776, "alt_km": 35773.23524580546, "timestamp": "2025-12-26T19:22:38.536990+00:00", "meta": {"OBJECT_NAME": "GOES 17", "OBJECT_ID": "2018-022A", "EPOCH": "2025-12-26T13:28:40.537056", "MEAN_MOTION": 1.0027151, "ECCENTRICITY": 0.00031962, "INCLINATION": 0.4913, "RA_OF_ASC_NODE": 89.0151, "ARG_OF_PERICENTER": 191.2344, "MEAN_ANOMALY": 287.726, "EPHEMERIS_TYPE": 0, "CLASSIFICATION_TYPE": "U", "NORAD_CAT_ID": 43226, "ELEMENT_SET_NO": 999, "REV_AT_EPOCH": 2869, "BSTAR": 0, "MEAN_MOTION_DOT": -1.61e-06, "MEAN_MOTION_DDOT": 0}, "tle": {"line1": "1 43226U 18022A   25360.56158029 -.00000161  00000+0  00000+0 0  9999", "line2": "2 43226   0.4913  89.0151 0003196 191.2344 287.7260  1.00271510 28697"}}, "geometry": {"type": "Point", "coordinates": [-63.287877760332776, -0.24659577339625754]}}, {"type": "Feature", "properties": {"norad_id": 43491, "name": "FENGYUN 2H", "group": "weather", "lat": 1.0833057919167703, "lon": 105.4901196265455, "alt_km": 35794.63472888711, "timestamp": "2025-12-26T19:22:38.537003+00:00", "meta": {"OBJECT_NAME": "FENGYUN 2H", "OBJECT_ID": "2018-050A", "EPOCH": "2025-12-26T15:38:10.430304", "MEAN_MOTION": 1.00270166, "ECCENTRICITY": 0.00024589, "INCLINATION": 2.5845, "RA_OF_ASC_NODE": 81.1822, "ARG_OF_PERICENTER": 166.5562, "MEAN_ANOMALY": 161.5272, "EPHEMERIS_TYPE": 0, "CLASSIFICATION_TYPE": "U", "NORAD_CAT_ID": 43491, "ELEMENT_SET_NO": 999, "REV_AT_EPOCH": 2770, "BSTAR": 0, "MEAN_MOTION_DOT": -1.08e-06, "MEAN_MOTION_DDOT": 0}, "tle": {"line1": "1 43491U 18050A   25360.65150961 -.00000108  00000+0  00000+0 0  9992", "line2": "2 43491   2.5845  81.1822 0002458 166.5562 161.5272  1.00270166 27702"}}, "geometry": {"type": "Point", "coordinates": [105.4901196265455, 1.0833057919167703]}}, {"type": "Feature", "properties": {"norad_id": 43689, "name": "METOP-C", "group": "weather", "lat": -67.77526195377031, "lon": -143.62413209115027, "alt_km": 827.7619731801769, "timestamp": "2025-12-26T19:22:38.537014+00:00", "meta": {"OBJECT_NAME": "METOP-C", "OBJECT_ID": "2018-087A", "EPOCH": "2025-12-26T14:49:43.783104", "MEAN_MOTION": 14.2148962, "ECCENTRICITY": 5.501e-05, "INCLINATION": 98.691, "RA_OF_ASC_NODE": 58.1735, "ARG_OF_PERICENTER": 12.7587, "MEAN_ANOMALY": 347.3605, "EPHEMERIS_TYPE": 0, "CLASSIFICATION_TYPE": "U", "NORAD_CAT_ID": 43689, "ELEMENT_SET_NO": 999, "REV_AT_EPOCH": 37031, "BSTAR": 8.3688782e-05, "MEAN_MOTION_DOT": 1.39e-06, "MEAN_MOTION_DDOT": 0}, "tle": {"line1": "1 43689U 18087A   25360.61786786  .00000139  00000+0  83689-4 0  9999", "line2": "2 43689  98.6910  58.1735 0000550  12.7587 347.3605 14.21489620370313"}}, "geometry": {"type": "Point", "coordinates": [-143.62413209115027, -67.77526195377031]}}, {"type": "Feature", "properties": {"norad_id": 43823, "name": "GEO-KOMPSAT-2A", "group": "weather", "lat": 0.008201471914944759, "lon": 154.4297785502063, "alt_km": 35787.0244954102, "timestamp": "2025-12-26T19:22:38.537034+00:00", "meta": {"OBJECT_NAME": "GEO-KOMPSAT-2A", "OBJECT_ID": "2018-100A", "EPOCH": "2025-12-25T12:13:38.614080", "MEAN_MOTION": 1.00268534, "ECCENTRICITY": 2.51e-05, "INCLINATION": 0.0434, "RA_OF_ASC_NODE": 172.7377, "ARG_OF_PERICENTER": 259.9479, "MEAN_ANOMALY": 333.2359, "EPHEMERIS_TYPE": 0, "CLASSIFICATION_TYPE": "U", "NORAD_CAT_ID": 43823, "ELEMENT_SET_NO": 999, "REV_AT_EPOCH": 2588, "BSTAR": 0, "MEAN_MOTION_DOT": -3.22e-06, "MEAN_MOTION_DDOT": 0}, "tle": {"line1": "1 43823U 18100A   25359.50947470 -.00000322  00000+0  00000+0 0  9996", "line2": "2 43823   0.0434 172.7377 0000251 259.9479 333.2359  1.00268534 25880"}}, "geometry": {"type": "Point", "coordinates": [154.4297785502063, 0.008201471914944759]}}, {"type": "Feature", "properties": {"norad_id": 44387, "name": "METEOR-M2 2", "group": "weather", "lat": 71.94526983418085, "lon": -170.56312262894747, "alt_km": 802.6351719979921, "timestamp": "2025-12-26T19:22:38.537046+00:00", "meta": {"OBJECT_NAME": "METEOR-M2 2", "OBJECT_ID": "2019-038A", "EPOCH": "2025-12-26T13:49:29.247744", "MEAN_MOTION": 14.24297488, "ECCENTRICITY": 0.00018217, "INCLINATION": 98.8991, "RA_OF_ASC_NODE": 340.4749, "ARG_OF_PERICENTER": 122.7366, "MEAN_ANOMALY": 237.3988, "EPHEMERIS_TYPE": 0, "CLASSIFICATION_TYPE": "U", "NORAD_CAT_ID": 44387, "ELEMENT_SET_NO": 999, "REV_AT_EPOCH": 33672, "BSTAR": 0.00014598871, "MEAN_MOTION_DOT": 2.91e-06, "MEAN_MOTION_DDOT": 0}, "tle": {"line1": "1 44387U 19038A   25360.57603296  .00000291  00000+0  14599-3 0  9993", "line2": "2 44387  98.8991 340.4749 0001821 122.7366 237.3988 14.24297488336722"}}, "geometry": {"type": "Point", "coordinates": [-170.56312262894747, 71.94526983418085]}}, {"type": "Feature", "properties": {"norad_id": 47719, "name": "ARKTIKA-M 1", "group": "weather", "lat": 62.26551631260602, "lon": -171.8837450413801, "alt_km": 38118.949303739944, "timestamp": "2025-12-26T19:22:38.537059+00:00", "meta": {"OBJECT_NAME": "ARKTIKA-M 1", "OBJECT_ID": "2021-016A", "EPOCH": "2025-12-26T00:48:12.401568", "MEAN_MOTION": 2.00630537, "ECCENTRICITY": 0.72107999, "INCLINATION": 63.1768, "RA_OF_ASC_NODE": 82.1795, "ARG_OF_PERICENTER": 269.1717, "MEAN_ANOMALY": 15.5344, "EPHEMERIS_TYPE": 0, "CLASSIFICATION_TYPE": "U", "NORAD_CAT_ID": 47719, "ELEMENT_SET_NO": 999, "REV_AT_EPOCH": 3531, "BSTAR": 0, "MEAN_MOTION_DOT": -4.1e-07, "MEAN_MOTION_DDOT": 0}, "tle": {"line1": "1 47719U 21016A   25360.03347687 -.00000041  00000+0  00000+0 0  9996", "line2": "2 47719  63.1768  82.1795 7210799 269.1717  15.5344  2.00630537 35311"}}, "geometry": {"type": "Point", "coordinates": [-171.8837450413801, 62.26551631260602]}}, {"type": "Feature", "properties": {"norad_id": 49008, "name": "FENGYUN 3E", "group": "weather", "lat": -21.47296608094802, "lon": 177.68901447491248, "alt_km": 830.2838803032546, "timestamp": "2025-12-26T19:22:38.537071+00:00", "meta": {"OBJECT_NAME": "FENGYUN 3E", "OBJECT_ID": "2021-062A", "EPOCH": "2025-12-26T15:02:53.736576", "MEAN_MOTION": 14.19882587, "ECCENTRICITY": 0.00010262, "INCLINATION": 98.7481, "RA_OF_ASC_NODE": 0.9833, "ARG_OF_PERICENTER": 185.6525, "MEAN_ANOMALY": 174.464, "EPHEMERIS_TYPE": 0, "CLASSIFICATION_TYPE": "U", "NORAD_CAT_ID": 49008, "ELEMENT_SET_NO": 999, "REV_AT_EPOCH": 23209, "BSTAR": 0.00015395903, "MEAN_MOTION_DOT": 2.83e-06, "MEAN_MOTION_DDOT": 0}, "tle": {"line1": "1 49008U 21062A   25360.62701084  .00000283  00000+0  15396-3 0  9995", "line2": "2 49008  98.7481   0.9833 0001026 185.6525 174.4640 14.19882587232099"}}, "geometry": {"type": "Point", "coordinates": [177.68901447491248, -21.47296608094802]}}, {"type": "Feature", "properties": {"norad_id": 51850, "name": "GOES 18", "group": "weather", "lat": -0.007448507751351121, "lon": -110.81205362479984, "alt_km": 35787.05729464358, "timestamp": "2025-12-26T19:22:38.537085+00:00", "meta": {"OBJECT_NAME": "GOES 18", "OBJECT_ID": "2022-021A", "EPOCH": "2025-12-26T13:25:07.004640", "MEAN_MOTION": 1.00266539, "ECCENTRICITY": 2.67e-05, "INCLINATION": 0.0396, "RA_OF_ASC_NODE": 207.2899, "ARG_OF_PERICENTER": 107.2467, "MEAN_ANOMALY": 205.0399, "EPHEMERIS_TYPE": 0, "CLASSIFICATION_TYPE": "U", "NORAD_CAT_ID": 51850, "ELEMENT_SET_NO": 999, "REV_AT_EPOCH": 486, "BSTAR": 0, "MEAN_MOTION_DOT": 1.19e-06, "MEAN_MOTION_DDOT": 0}, "tle": {"line1": "1 51850U 22021A   25360.55910885  .00000119  00000+0  00000+0 0  9992", "line2": "2 51850   0.0396 207.2899 0000267 107.2467 205.0399  1.00266539  4866"}}, "geometry": {"type": "Point", "coordinates": [-110.81205362479984, -0.007448507751351121]}}]}